STARLINK-31856          
1 59960U 24107R   25322.95483383  .00001252  00000+0  54382-4 0  9995
2 59960  53.1584 219.8017 0000890  82.9875 277.1227 15.30190735 82845
STARLINK-31993          
1 59961U 24107S   25322.96433074  .00002685  00000+0  10274-3 0  9991
2 59961  53.1603 219.8587 0001189  90.1279 269.9858 15.30198825 82781
STARLINK-31980          
1 59962U 24107T   25322.97171733  .00000209  00000+0  19164-4 0  9992
2 59962  53.1612 219.9026 0000650  58.5328 301.5736 15.30186002 82845
STARLINK-31991          
1 59963U 24107U   25323.02648322  .00000994  00000+0  45710-4 0  9990
2 59963  53.1595 219.5344 0001146  89.6217 270.4915 15.30186699 82854
STARLINK-31979          
1 59964U 24107V   25322.77260015  .00000887  00000+0  42045-4 0  9990
2 59964  53.1593 220.7929 0000518  97.1663 262.9397 15.30196582 82769
STARLINK-31978          
1 60016U 24111A   25323.01172737  .00003995  00000+0  14707-3 0  9992
2 60016  53.1602 230.0410 0001094  81.6807 278.4317 15.30167079 81983
STARLINK-31987          
1 60017U 24111B   25323.07070618  .00007780  00000+0  27456-3 0  9995
2 60017  53.1614 229.6965 0001196  86.8276 273.2862 15.30195165 82050
STARLINK-31984          
1 60018U 24111C   25323.06332060 -.00001634  00000+0 -43074-4 0  9996
2 60018  53.1604 229.6523 0001210 100.5593 259.5544 15.30179117 81943
STARLINK-31986          
1 60019U 24111D   25323.05382395 -.00001905  00000+0 -52169-4 0  9998
2 60019  53.1593 229.5900 0001327  95.0111 265.1041 15.30213536 82100
STARLINK-31883          
1 60020U 24111E   25323.00855334  .00005590  00000+0  20069-3 0  9998
2 60020  53.1626 230.0221 0001663  79.6012 280.5176 15.30203320 82035
STARLINK-31967          
1 60021U 24111F   25323.02110894  .00000217  00000+0  19473-4 0  9995
2 60021  53.1609 229.3829 0001548  77.9749 282.1425 15.30182283 82109
STARLINK-31982          
1 60022U 24111G   25323.01477622  .00002916  00000+0  11057-3 0  9997
2 60022  53.1607 229.3523 0001408  73.4328 286.6827 15.30191603 82109
STARLINK-31992          
1 60023U 24111H   25323.03083893  .00024710  00000+0  86576-3 0  9997
2 60023  53.1603 229.4497 0001426  76.1287 283.9872 15.29356506 82104
STARLINK-31990          
1 60024U 24111J   25322.97900517  .00000983  00000+0  45306-4 0  9994
2 60024  53.1601 229.8339 0001173  72.2157 287.8972 15.30195999 82084
STARLINK-31864          
1 60025U 24111K   25323.33336806  .00949108  00000+0  63284-2 0  9994
2 60025  53.1427 220.8426 0016537 170.6048  46.6083 15.72387033  5820
STARLINK-31939          
1 60026U 24111L   25323.03060391  .00018699  00000+0  64205-3 0  9992
2 60026  53.1592 229.4474 0001316  74.3188 285.7958 15.30190050 82092
