[{"OBJECT_NAME":"STARLINK-31856","OBJECT_ID":"2024-107R","EPOCH":"2025-11-18T22:54:57.642912","MEAN_MOTION":15.30190735,"ECCENTRICITY":8.904e-5,"INCLINATION":53.1584,"RA_OF_ASC_NODE":219.8017,"ARG_OF_PERICENTER":82.9875,"MEAN_ANOMALY":277.1227,"EPHEMERIS_TYPE":0,"CLASSIFICATION_TYPE":"U","NORAD_CAT_ID":59960,"ELEMENT_SET_NO":999,"REV_AT_EPOCH":8284,"BSTAR":5.4382339e-5,"MEAN_MOTION_DOT":1.252e-5,"MEAN_MOTION_DDOT":0},{"OBJECT_NAME":"STARLINK-31993","OBJECT_ID":"2024-107S","EPOCH":"2025-11-18T23:08:38.175936","MEAN_MOTION":15.30198825,"ECCENTRICITY":0.00011893,"INCLINATION":53.1603,"RA_OF_ASC_NODE":219.8587,"ARG_OF_PERICENTER":90.1279,"MEAN_ANOMALY":269.9858,"EPHEMERIS_TYPE":0,"CLASSIFICATION_TYPE":"U","NORAD_CAT_ID":59961,"ELEMENT_SET_NO":999,"REV_AT_EPOCH":8278,"BSTAR":0.0001027351,"MEAN_MOTION_DOT":2.685e-5,"MEAN_MOTION_DDOT":0},{"OBJECT_NAME":"STARLINK-31980","OBJECT_ID":"2024-107T","EPOCH":"2025-11-18T23:19:16.377312","MEAN_MOTION":15.30186002,"ECCENTRICITY":6.506e-5,"INCLINATION":53.1612,"RA_OF_ASC_NODE":219.9026,"ARG_OF_PERICENTER":58.5328,"MEAN_ANOMALY":301.5736,"EPHEMERIS_TYPE":0,"CLASSIFICATION_TYPE":"U","NORAD_CAT_ID":59962,"ELEMENT_SET_NO":999,"REV_AT_EPOCH":8284,"BSTAR":1.9164152e-5,"MEAN_MOTION_DOT":2.09e-6,"MEAN_MOTION_DDOT":0},{"OBJECT_NAME":"STARLINK-31991","OBJECT_ID":"2024-107U","EPOCH":"2025-11-19T00:38:08.150208","MEAN_MOTION":15.30186699,"ECCENTRICITY":0.00011469,"INCLINATION":53.1595,"RA_OF_ASC_NODE":219.5344,"ARG_OF_PERICENTER":89.6217,"MEAN_ANOMALY":270.4915,"EPHEMERIS_TYPE":0,"CLASSIFICATION_TYPE":"U","NORAD_CAT_ID":59963,"ELEMENT_SET_NO":999,"REV_AT_EPOCH":8285,"BSTAR":4.5710479e-5,"MEAN_MOTION_DOT":9.94e-6,"MEAN_MOTION_DDOT":0},{"OBJECT_NAME":"STARLINK-31979","OBJECT_ID":"2024-107V","EPOCH":"2025-11-18T18:32:32.652960","MEAN_MOTION":15.30196582,"ECCENTRICITY":5.186e-5,"INCLINATION":53.1593,"RA_OF_ASC_NODE":220.7929,"ARG_OF_PERICENTER":97.1663,"MEAN_ANOMALY":262.9397,"EPHEMERIS_TYPE":0,"CLASSIFICATION_TYPE":"U","NORAD_CAT_ID":59964,"ELEMENT_SET_NO":999,"REV_AT_EPOCH":8276,"BSTAR":4.2044672e-5,"MEAN_MOTION_DOT":8.87e-6,"MEAN_MOTION_DDOT":0},{"OBJECT_NAME":"STARLINK-31978","OBJECT_ID":"2024-111A","EPOCH":"2025-11-19T00:16:53.244768","MEAN_MOTION":15.30167079,"ECCENTRICITY":0.00010941,"INCLINATION":53.1602,"RA_OF_ASC_NODE":230.041,"ARG_OF_PERICENTER":81.6807,"MEAN_ANOMALY":278.4317,"EPHEMERIS_TYPE":0,"CLASSIFICATION_TYPE":"U","NORAD_CAT_ID":60016,"ELEMENT_SET_NO":999,"REV_AT_EPOCH":8198,"BSTAR":0.00014707176,"MEAN_MOTION_DOT":3.995e-5,"MEAN_MOTION_DDOT":0},{"OBJECT_NAME":"STARLINK-31987","OBJECT_ID":"2024-111B","EPOCH":"2025-11-19T01:41:49.013952","MEAN_MOTION":15.30195165,"ECCENTRICITY":0.00011962,"INCLINATION":53.1614,"RA_OF_ASC_NODE":229.6965,"ARG_OF_PERICENTER":86.8276,"MEAN_ANOMALY":273.2862,"EPHEMERIS_TYPE":0,"CLASSIFICATION_TYPE":"U","NORAD_CAT_ID":60017,"ELEMENT_SET_NO":999,"REV_AT_EPOCH":8205,"BSTAR":0.00027455569,"MEAN_MOTION_DOT":7.78e-5,"MEAN_MOTION_DDOT":0},{"OBJECT_NAME":"STARLINK-31984","OBJECT_ID":"2024-111C","EPOCH":"2025-11-19T01:31:10.899840","MEAN_MOTION":15.30179117,"ECCENTRICITY":0.00012103,"INCLINATION":53.1604,"RA_OF_ASC_NODE":229.6523,"ARG_OF_PERICENTER":100.5593,"MEAN_ANOMALY":259.5544,"EPHEMERIS_TYPE":0,"CLASSIFICATION_TYPE":"U","NORAD_CAT_ID":60018,"ELEMENT_SET_NO":999,"REV_AT_EPOCH":8194,"BSTAR":-4.3073565e-5,"MEAN_MOTION_DOT":-1.634e-5,"MEAN_MOTION_DDOT":0},{"OBJECT_NAME":"STARLINK-31986","OBJECT_ID":"2024-111D","EPOCH":"2025-11-19T01:17:30.389280","MEAN_MOTION":15.30213536,"ECCENTRICITY":0.00013277,"INCLINATION":53.1593,"RA_OF_ASC_NODE":229.59,"ARG_OF_PERICENTER":95.0111,"MEAN_ANOMALY":265.1041,"EPHEMERIS_TYPE":0,"CLASSIFICATION_TYPE":"U","NORAD_CAT_ID":60019,"ELEMENT_SET_NO":999,"REV_AT_EPOCH":8210,"BSTAR":-5.2169231e-5,"MEAN_MOTION_DOT":-1.905e-5,"MEAN_MOTION_DDOT":0},{"OBJECT_NAME":"STARLINK-31883","OBJECT_ID":"2024-111E","EPOCH":"2025-11-19T00:12:19.008576","MEAN_MOTION":15.3020332,"ECCENTRICITY":0.00016638,"INCLINATION":53.1626,"RA_OF_ASC_NODE":230.0221,"ARG_OF_PERICENTER":79.6012,"MEAN_ANOMALY":280.5176,"EPHEMERIS_TYPE":0,"CLASSIFICATION_TYPE":"U","NORAD_CAT_ID":60020,"ELEMENT_SET_NO":999,"REV_AT_EPOCH":8203,"BSTAR":0.00020069338,"MEAN_MOTION_DOT":5.59e-5,"MEAN_MOTION_DDOT":0},{"OBJECT_NAME":"STARLINK-31967","OBJECT_ID":"2024-111F","EPOCH":"2025-11-19T00:30:23.812416","MEAN_MOTION":15.30182283,"ECCENTRICITY":0.00015488,"INCLINATION":53.1609,"RA_OF_ASC_NODE":229.3829,"ARG_OF_PERICENTER":77.9749,"MEAN_ANOMALY":282.1425,"EPHEMERIS_TYPE":0,"CLASSIFICATION_TYPE":"U","NORAD_CAT_ID":60021,"ELEMENT_SET_NO":999,"REV_AT_EPOCH":8210,"BSTAR":1.9472631e-5,"MEAN_MOTION_DOT":2.17e-6,"MEAN_MOTION_DDOT":0},{"OBJECT_NAME":"STARLINK-31982","OBJECT_ID":"2024-111G","EPOCH":"2025-11-19T00:21:16.665408","MEAN_MOTION":15.30191603,"ECCENTRICITY":0.00014088,"INCLINATION":53.1607,"RA_OF_ASC_NODE":229.3523,"ARG_OF_PERICENTER":73.4328,"MEAN_ANOMALY":286.6827,"EPHEMERIS_TYPE":0,"CLASSIFICATION_TYPE":"U","NORAD_CAT_ID":60022,"ELEMENT_SET_NO":999,"REV_AT_EPOCH":8210,"BSTAR":0.00011056997,"MEAN_MOTION_DOT":2.916e-5,"MEAN_MOTION_DDOT":0},{"OBJECT_NAME":"STARLINK-31992","OBJECT_ID":"2024-111H","EPOCH":"2025-11-19T00:44:24.483552","MEAN_MOTION":15.29356506,"ECCENTRICITY":0.0001426,"INCLINATION":53.1603,"RA_OF_ASC_NODE":229.4497,"ARG_OF_PERICENTER":76.1287,"MEAN_ANOMALY":283.9872,"EPHEMERIS_TYPE":0,"CLASSIFICATION_TYPE":"U","NORAD_CAT_ID":60023,"ELEMENT_SET_NO":999,"REV_AT_EPOCH":8210,"BSTAR":0.00086575658,"MEAN_MOTION_DOT":0.0002471,"MEAN_MOTION_DDOT":0},{"OBJECT_NAME":"STARLINK-31990","OBJECT_ID":"2024-111J","EPOCH":"2025-11-18T23:29:46.046688","MEAN_MOTION":15.30195999,"ECCENTRICITY":0.00011738,"INCLINATION":53.1601,"RA_OF_ASC_NODE":229.8339,"ARG_OF_PERICENTER":72.2157,"MEAN_ANOMALY":287.8972,"EPHEMERIS_TYPE":0,"CLASSIFICATION_TYPE":"U","NORAD_CAT_ID":60024,"ELEMENT_SET_NO":999,"REV_AT_EPOCH":8208,"BSTAR":4.5305828e-5,"MEAN_MOTION_DOT":9.83e-6,"MEAN_MOTION_DDOT":0},{"OBJECT_NAME":"STARLINK-31864","OBJECT_ID":"2024-111K","EPOCH":"2025-11-19T08:00:03.000384","MEAN_MOTION":15.72387033,"ECCENTRICITY":0.00165375,"INCLINATION":53.1427,"RA_OF_ASC_NODE":220.8426,"ARG_OF_PERICENTER":170.6048,"MEAN_ANOMALY":46.6083,"EPHEMERIS_TYPE":0,"CLASSIFICATION_TYPE":"U","NORAD_CAT_ID":60025,"ELEMENT_SET_NO":999,"REV_AT_EPOCH":582,"BSTAR":0.0063284484,"MEAN_MOTION_DOT":0.00949108,"MEAN_MOTION_DDOT":0},{"OBJECT_NAME":"STARLINK-31939","OBJECT_ID":"2024-111L","EPOCH":"2025-11-19T00:44:04.177824","MEAN_MOTION":15.3019005,"ECCENTRICITY":0.00013168,"INCLINATION":53.1592,"RA_OF_ASC_NODE":229.4474,"ARG_OF_PERICENTER":74.3188,"MEAN_ANOMALY":285.7958,"EPHEMERIS_TYPE":0,"CLASSIFICATION_TYPE":"U","NORAD_CAT_ID":60026,"ELEMENT_SET_NO":999,"REV_AT_EPOCH":8209,"BSTAR":0.00064205244,"MEAN_MOTION_DOT":0.00018699,"MEAN_MOTION_DDOT":0}]
